#aV2009  5 10  0  0   .00000000      96 DD+AD WGS84 FIT  NGA
## 1531       .00000000   900.00000000 54961  .0000000000000
+   31     2  3  4  5  6  7  8  9 10 11 12 13 14 15 16 17 18
+         19 20 21 22 23 24 25 26 27 28 29 30 31 32  0  0  0
+          0  0  0  0  0  0  0  0  0  0  0  0  0  0  0  0  0
+          0  0  0  0  0  0  0  0  0  0  0  0  0  0  0  0  0
+          0  0  0  0  0  0  0  0  0  0  0  0  0  0  0  0  0
++         0  0  0  0  0  0  0  0  0  0  0  0  0  0  0  0  0
++         0  0  0  0  0  0  0  0  0  0  0  0  0  0  0  0  0
++         0  0  0  0  0  0  0  0  0  0  0  0  0  0  0  0  0
++         0  0  0  0  0  0  0  0  0  0  0  0  0  0  0  0  0
++         0  0  0  0  0  0  0  0  0  0  0  0  0  0  0  0  0
%c cc cc ccc ccc cccc cccc cccc cccc ccccc ccccc ccccc ccccc
%c cc cc ccc ccc cccc cccc cccc cccc ccccc ccccc ccccc ccccc
%f  0.0000000  0.000000000  0.00000000000  0.000000000000000
%f  0.0000000  0.000000000  0.00000000000  0.000000000000000
%i    0    0    0    0      0      0      0      0         0
%i    0    0    0    0      0      0      0      0         0
/*      NGA, ST. LOUIS,MO.                                  
/*   EPHEMERIS COMPUTED FROM  3 DAYS OF DATA                
/* CCCCCCCCCCCCCCCCCCCCCCCCCCCCCCCCCCCCCCCCCCCCCCCCCCCCCCCCC
/* CCCCCCCCCCCCCCCCCCCCCCCCCCCCCCCCCCCCCCCCCCCCCCCCCCCCCCCCC
*  2009  5 10 15 45   .00000000                                                 
P  2  16616.301303   -191.747797 -20737.978873    154.027190                    
V  2  -9738.619079  24421.633121  -8476.627481       .004669                    
P  3 -19929.659004  -2984.541807  17165.591252    391.161139                    
V  3 -13255.895939 -18160.636660 -17865.381698       .051711                    
P  4  11029.655438  12290.034159 -20870.429835    -85.489947                    
V  4 -12105.914885  23419.983986   7805.867514      -.153254                    
P  5  15761.703969 -14598.253581 -15839.325270    -71.427501                    
V  5  19731.958617  -1444.983860  21498.722448      -.188617                    
P  6 -20448.067074  -8121.711803  15110.934977    117.049870                    
V  6  -9584.271581 -16489.365014 -22059.939384       .156531                    
P  7  -5654.829192  24725.912751   7654.453322     19.089773                    
V  7  -6416.621003   7794.725489 -29952.727530      -.006228                    
P  8   3779.412781  18510.260507  18398.357158   -202.407900                    
V  8 -12385.483502  20122.613143 -18134.738934      -.017706                    
P  9  14521.537834 -20409.341003   8024.808843     55.149165                    
V  9  -2131.124238  11155.232864  29913.267857       .019073                    
P 10  26707.349495  -1372.467813   -556.655911    -15.798295                    
V 10   -332.292046   2627.650445 -31475.356014      -.005856                    
P 11 -11826.539434  22016.719710   8262.216727     -2.042315                    
V 11  -2385.923820 -11815.132396  27751.278206      -.013811                    
P 12  18032.621566 -12050.591510 -15176.426296   -283.059562                    
V 12  19534.614803    334.223633  22954.360664       .052032                    
P 13   3138.676993  22383.281491 -14083.098695    296.735627                    
V 13 -10396.202495 -14260.885371 -25211.846151       .009272                    
P 14 -15379.039462 -21655.829882  -1696.731004   -112.795164                    
V 14    306.439671  -2922.895411  32180.296216       .059428                    
P 15  15381.649314  -4326.974344  21245.199819   -290.224151                    
V 15  15338.182293  22148.845982  -6539.722008      -.038513                    
P 16 -26149.202714  -1666.006151  -5003.676517     52.243602                    
V 16   6212.151291  -2761.245007 -30920.449729      -.032937                    
P 17  15002.676440  22044.354473    -47.480288     58.310453                    
V 17  -2159.470187   1636.577146  31596.680339       .018256                    
P 18  -3217.978163 -15499.094093  21568.953740    -58.130683                    
V 18  26860.700965  -1721.125761   2426.476836       .033099                    
P 19 -14359.510890   5740.625745  21672.244904     26.076799                    
V 19 -13942.675026 -23545.510796  -2764.456495      -.010954                    
P 20 -15909.424511  13760.931848 -16319.392385     83.018190                    
V 20 -20674.084382    142.964336  20476.772910      -.010336                    
P 21   2272.909527 -23727.809007  11277.350971     14.737975                    
V 21   9378.323421 -11260.274891 -26802.705875      -.020536                    
P 22 -14830.017483 -12559.401807  18290.332029    199.933932                    
V 22  22823.397265  -3001.221327  16514.077662      -.007839                    
P 23  -6528.256685  15370.118915 -20635.810909    389.938653                    
V 23 -15721.902137 -20898.712049 -10891.584522       .001911                    
P 24  13180.512647 -23184.033163  -1219.106303    187.812267                    
V 24   1778.173660   2852.378239 -31322.023827       .029592                    
P 25  -8583.170372  25248.406673    470.737553    405.084929                    
V 25  -2291.826329   -621.467287 -31817.165624       .198477                    
P 26   8789.091099 -12171.048979  21302.007720     60.384835                    
V 26  15611.177265  23664.253021   7409.533408       .013937                    
P 27  17031.954193 -13361.484971  16110.094007     47.928476                    
V 27  -5721.800971  18352.217426  22165.548734       .031996                    
P 28  12488.839630  13081.028439  19987.134110    -24.674577                    
V 28 -24234.313604   2335.088247  13607.508225      -.002836                    
P 29  -2030.019752 -21848.089755 -14886.738189     18.667573                    
V 29  12323.954982  14715.728167 -23070.526076       .038164                    
P 30   6369.500832 -15764.101119 -20750.653367    145.286098                    
V 30  25481.773536  -2437.462873   9931.829861       .026692                    
P 31 -11530.544358  -9991.494076 -21518.950057    -59.887499                    
V 31  12073.054039 -25043.192605   5246.058711      -.009169                    
P 32 -23092.028910   7228.162910 -10255.963467    263.401585                    
V 32 -13703.099645  -2617.769489  28179.950583      -.051487                    
EOF
